{
  "type": "FeatureCollection",
  "features": [
    {
      "type": "Feature",
      "properties": {
        "norad_id": 37836,
        "name": "EUTELSAT 16A",
        "group": "eutelsat",
        "lat": -0.02767738388096014,
        "lon": -158.21224906563782,
        "alt_km": 35774.250879820494,
        "timestamp": "2025-12-11T07:02:23.405108+00:00",
        "meta_object_name": "EUTELSAT 16A",
        "meta_object_id": "2011-057A",
        "meta_epoch": "2025-12-10T21:27:38.786688",
        "meta_mean_motion": 1.00271592,
        "meta_eccentricity": 0.00059889,
        "meta_inclination": 0.0587,
        "meta_ra_of_asc_node": 5.5485,
        "meta_arg_of_pericenter": 258.4349,
        "meta_mean_anomaly": 153.7899,
        "meta_ephemeris_type": 0,
        "meta_classification_type": "U",
        "meta_norad_cat_id": 37836,
        "meta_element_set_no": 999,
        "meta_rev_at_epoch": 543,
        "meta_bstar": 0,
        "meta_mean_motion_dot": 1.09e-06,
        "meta_mean_motion_ddot": 0,
        "tle_line1": "1 37836U 11057A   25344.89419892  .00000109  00000+0  00000+0 0  9997",
        "tle_line2": "2 37836   0.0587   5.5485 0005988 258.4349 153.7899  1.00271592  5432"
      },
      "geometry": {
        "type": "Point",
        "coordinates": [
          -158.21224906563782,
          -0.02767738388096014
        ]
      }
    },
    {
      "type": "Feature",
      "properties": {
        "norad_id": 38992,
        "name": "EUTELSAT 21B",
        "group": "eutelsat",
        "lat": -0.041424767021905985,
        "lon": -152.5883816747492,
        "alt_km": 35779.41417068827,
        "timestamp": "2025-12-11T07:02:23.405119+00:00",
        "meta_object_name": "EUTELSAT 21B",
        "meta_object_id": "2012-062B",
        "meta_epoch": "2025-12-10T20:29:36.128832",
        "meta_mean_motion": 1.00271654,
        "meta_eccentricity": 0.0003307,
        "meta_inclination": 0.0664,
        "meta_ra_of_asc_node": 1.9348,
        "meta_arg_of_pericenter": 267.1555,
        "meta_mean_anomaly": 139.7285,
        "meta_ephemeris_type": 0,
        "meta_classification_type": "U",
        "meta_norad_cat_id": 38992,
        "meta_element_set_no": 999,
        "meta_rev_at_epoch": 4793,
        "meta_bstar": 0,
        "meta_mean_motion_dot": 1.35e-06,
        "meta_mean_motion_ddot": 0,
        "tle_line1": "1 38992U 12062B   25344.85389038  .00000135  00000+0  00000+0 0  9991",
        "tle_line2": "2 38992   0.0664   1.9348 0003307 267.1555 139.7285  1.00271654 47932"
      },
      "geometry": {
        "type": "Point",
        "coordinates": [
          -152.5883816747492,
          -0.041424767021905985
        ]
      }
    },
    {
      "type": "Feature",
      "properties": {
        "norad_id": 39020,
        "name": "EUTELSAT 70B",
        "group": "eutelsat",
        "lat": -0.0813487345026511,
        "lon": -103.61979726782396,
        "alt_km": 35767.97442082603,
        "timestamp": "2025-12-11T07:02:23.405131+00:00",
        "meta_object_name": "EUTELSAT 70B",
        "meta_object_id": "2012-069A",
        "meta_epoch": "2025-12-10T20:36:08.072064",
        "meta_mean_motion": 1.00271806,
        "meta_eccentricity": 0.00043678,
        "meta_inclination": 0.0634,
        "meta_ra_of_asc_node": 341.4081,
        "meta_arg_of_pericenter": 263.2988,
        "meta_mean_anomaly": 214.6746,
        "meta_ephemeris_type": 0,
        "meta_classification_type": "U",
        "meta_norad_cat_id": 39020,
        "meta_element_set_no": 999,
        "meta_rev_at_epoch": 4762,
        "meta_bstar": 0,
        "meta_mean_motion_dot": -3.9e-07,
        "meta_mean_motion_ddot": 0,
        "tle_line1": "1 39020U 12069A   25344.85842676 -.00000039  00000+0  00000+0 0  9997",
        "tle_line2": "2 39020   0.0634 341.4081 0004367 263.2988 214.6746  1.00271806 47622"
      },
      "geometry": {
        "type": "Point",
        "coordinates": [
          -103.61979726782396,
          -0.0813487345026511
        ]
      }
    },
    {
      "type": "Feature",
      "properties": {
        "norad_id": 39122,
        "name": "EUTELSAT 117 WEST A",
        "group": "eutelsat",
        "lat": 0.02959091843578315,
        "lon": 69.05169825379836,
        "alt_km": 35798.703620774635,
        "timestamp": "2025-12-11T07:02:23.405161+00:00",
        "meta_object_name": "EUTELSAT 117 WEST A",
        "meta_object_id": "2013-012A",
        "meta_epoch": "2025-12-10T14:41:56.962176",
        "meta_mean_motion": 1.00271076,
        "meta_eccentricity": 0.00030181,
        "meta_inclination": 0.013,
        "meta_ra_of_asc_node": 0.7608,
        "meta_arg_of_pericenter": 261.2134,
        "meta_mean_anomaly": 281.2938,
        "meta_ephemeris_type": 0,
        "meta_classification_type": "U",
        "meta_norad_cat_id": 39122,
        "meta_element_set_no": 999,
        "meta_rev_at_epoch": 4654,
        "meta_bstar": 0,
        "meta_mean_motion_dot": -9e-08,
        "meta_mean_motion_ddot": 0,
        "tle_line1": "1 39122U 13012A   25344.61246484 -.00000009  00000+0  00000+0 0  9995",
        "tle_line2": "2 39122   0.0130   0.7608 0003018 261.2134 281.2938  1.00271076 46541"
      },
      "geometry": {
        "type": "Point",
        "coordinates": [
          69.05169825379836,
          0.02959091843578315
        ]
      }
    },
    {
      "type": "Feature",
      "properties": {
        "norad_id": 39163,
        "name": "EUTELSAT 7B",
        "group": "eutelsat",
        "lat": -0.002259460711168425,
        "lon": -167.20366852768822,
        "alt_km": 35796.47274927137,
        "timestamp": "2025-12-11T07:02:23.405178+00:00",
        "meta_object_name": "EUTELSAT 7B",
        "meta_object_id": "2013-022A",
        "meta_epoch": "2025-12-10T21:35:38.732640",
        "meta_mean_motion": 1.0027228,
        "meta_eccentricity": 0.00046034,
        "meta_inclination": 0.0722,
        "meta_ra_of_asc_node": 17.9897,
        "meta_arg_of_pericenter": 298.0401,
        "meta_mean_anomaly": 94.7396,
        "meta_ephemeris_type": 0,
        "meta_classification_type": "U",
        "meta_norad_cat_id": 39163,
        "meta_element_set_no": 999,
        "meta_rev_at_epoch": 4606,
        "meta_bstar": 0,
        "meta_mean_motion_dot": 5.3e-07,
        "meta_mean_motion_ddot": 0,
        "tle_line1": "1 39163U 13022A   25344.89975385  .00000053  00000+0  00000+0 0  9998",
        "tle_line2": "2 39163   0.0722  17.9897 0004603 298.0401  94.7396  1.00272280 46069"
      },
      "geometry": {
        "type": "Point",
        "coordinates": [
          -167.20366852768822,
          -0.002259460711168425
        ]
      }
    },
    {
      "type": "Feature",
      "properties": {
        "norad_id": 39612,
        "name": "EXPRESS-AT1",
        "group": "eutelsat",
        "lat": -0.02535720722382607,
        "lon": -118.15646684435771,
        "alt_km": 35784.562738656685,
        "timestamp": "2025-12-11T07:02:23.405191+00:00",
        "meta_object_name": "EXPRESS-AT1",
        "meta_object_id": "2014-010A",
        "meta_epoch": "2025-12-10T20:39:27.684576",
        "meta_mean_motion": 1.00270937,
        "meta_eccentricity": 4.838e-05,
        "meta_inclination": 0.0137,
        "meta_ra_of_asc_node": 296.6303,
        "meta_arg_of_pericenter": 272.7937,
        "meta_mean_anomaly": 236.2631,
        "meta_ephemeris_type": 0,
        "meta_classification_type": "U",
        "meta_norad_cat_id": 39612,
        "meta_element_set_no": 999,
        "meta_rev_at_epoch": 4293,
        "meta_bstar": 0,
        "meta_mean_motion_dot": 8.4e-07,
        "meta_mean_motion_ddot": 0,
        "tle_line1": "1 39612U 14010A   25344.86073709  .00000084  00000+0  00000+0 0  9995",
        "tle_line2": "2 39612   0.0137 296.6303 0000483 272.7937 236.2631  1.00270937 42935"
      },
      "geometry": {
        "type": "Point",
        "coordinates": [
          -118.15646684435771,
          -0.02535720722382607
        ]
      }
    },
    {
      "type": "Feature",
      "properties": {
        "norad_id": 39613,
        "name": "EXPRESS-AT2",
        "group": "eutelsat",
        "lat": -0.009246376126391244,
        "lon": -34.28140480548366,
        "alt_km": 35781.143642794974,
        "timestamp": "2025-12-11T07:02:23.405204+00:00",
        "meta_object_name": "EXPRESS-AT2",
        "meta_object_id": "2014-010B",
        "meta_epoch": "2025-12-10T21:03:17.901792",
        "meta_mean_motion": 1.00269519,
        "meta_eccentricity": 0.00015298,
        "meta_inclination": 0.0163,
        "meta_ra_of_asc_node": 342.6623,
        "meta_arg_of_pericenter": 313.8783,
        "meta_mean_anomaly": 238.9938,
        "meta_ephemeris_type": 0,
        "meta_classification_type": "U",
        "meta_norad_cat_id": 39613,
        "meta_element_set_no": 999,
        "meta_rev_at_epoch": 4261,
        "meta_bstar": 0,
        "meta_mean_motion_dot": 0,
        "meta_mean_motion_ddot": 0,
        "tle_line1": "1 39613U 14010B   25344.87729053  .00000000  00000+0  00000+0 0  9995",
        "tle_line2": "2 39613   0.0163 342.6623 0001529 313.8783 238.9938  1.00269519 42618"
      },
      "geometry": {
        "type": "Point",
        "coordinates": [
          -34.28140480548366,
          -0.009246376126391244
        ]
      }
    }
  ]
}